GLOBALSTAR M001 [-]     
1 25162U 98008A   24049.93447682 -.00000053  00000+0  33646-3 0  9996
2 25162  52.0043 302.6436 0001459 343.6567 100.6606 12.38177850183721
GLOBALSTAR M004 [-]     
1 25163U 98008B   24049.83833876 -.00000085  00000+0  10695-3 0  9994
2 25163  51.9991  91.7349 0002556 292.6492 238.9898 12.63350503200465
GLOBALSTAR M002 [-]     
1 25164U 98008C   24049.91838037 -.00000051  00000+0  50325-3 0  9995
2 25164  52.0050  14.4155 0001416 345.6943  14.3837 11.61497848127799
GLOBALSTAR M003 [-]     
1 25165U 98008D   24049.81273623  .00000038  00000+0  13566-2 0  9998
2 25165  51.9822  70.0892 0007987  40.8981 129.7605 12.11978617174482
GLOBALSTAR M014 [-]     
1 25306U 98023A   24049.97156556 -.00000050  00000+0  50728-3 0  9991
2 25306  51.9853 307.6903 0000679 135.9920 236.6550 11.65464743134712
GLOBALSTAR M006 [-]     
1 25307U 98023B   24049.95731594 -.00000068  00000+0  15701-3 0  9992
2 25307  51.9975 342.0995 0003788 326.0593 111.8218 11.58156419160720
GLOBALSTAR M015 [-]     
1 25308U 98023C   24049.80186395 -.00000122  00000+0 -11172-2 0  9999
2 25308  51.9830  58.7560 0012354 292.6930 239.1421 11.48855850138406
GLOBALSTAR M008 [-]     
1 25309U 98023D   24049.60264097 -.00000085  00000+0  88381-4 0  9999
2 25309  51.9961 162.9482 0002251 214.5724 158.3160 12.36036417178237
